[{"OBJECT_NAME":"STARLINK-34372","OBJECT_ID":"2025-123L","EPOCH":"2026-03-09T17:30:27.821952","MEAN_MOTION":14.98311105,"ECCENTRICITY":0.00031033,"INCLINATION":70.0026,"RA_OF_ASC_NODE":194.3892,"ARG_OF_PERICENTER":269.7831,"MEAN_ANOMALY":90.2972,"EPHEMERIS_TYPE":0,"CLASSIFICATION_TYPE":"U","NORAD_CAT_ID":64301,"ELEMENT_SET_NO":999,"REV_AT_EPOCH":4162,"BSTAR":-0.00020361241,"MEAN_MOTION_DOT":-2.52e-5,"MEAN_MOTION_DDOT":0},{"OBJECT_NAME":"CZ-6A DEB","OBJECT_ID":"2024-140FD","EPOCH":"2026-03-09T14:27:44.906112","MEAN_MOTION":14.99694865,"ECCENTRICITY":0.0039811,"INCLINATION":89.0027,"RA_OF_ASC_NODE":280.8171,"ARG_OF_PERICENTER":188.2594,"MEAN_ANOMALY":171.7991,"EPHEMERIS_TYPE":0,"CLASSIFICATION_TYPE":"U","NORAD_CAT_ID":60778,"ELEMENT_SET_NO":999,"REV_AT_EPOCH":8450,"BSTAR":0.0048584,"MEAN_MOTION_DOT":0.00061368,"MEAN_MOTION_DDOT":0}]
